{
  "norad_id": 64948,
  "name": "STARLINK-34630",
  "history": [
    {
      "epoch": "2026-03-28T18:52:01.117056Z",
      "apogee_km": 550.7462047438448,
      "perigee_km": 548.1464212781366,
      "latitude_deg": 2.084709594407307e-05,
      "longitude_deg": -156.23133226014625,
      "height_km": 552.2961676792908,
      "semi_major_axis_km": 6927.58331301099,
      "eccentricity": 0.00018764,
      "inclination_deg": 97.6025,
      "raan_deg": 312.9749,
      "arg_perigee_deg": 80.5998,
      "mean_anomaly_deg": 279.5441,
      "mean_motion_rev_day": 15.05671139
    },
    {
      "epoch": "2026-03-29T04:26:13.455744Z",
      "apogee_km": 551.2354188017471,
      "perigee_km": 547.7286580444979,
      "latitude_deg": 5.999043029922088e-06,
      "longitude_deg": 60.217228723266935,
      "height_km": 552.050865708268,
      "semi_major_axis_km": 6927.619038423122,
      "eccentricity": 0.0002531,
      "inclination_deg": 97.6022,
      "raan_deg": 313.3679,
      "arg_perigee_deg": 73.6956,
      "mean_anomaly_deg": 286.4549,
      "mean_motion_rev_day": 15.05659492
    },
    {
      "epoch": "2026-03-30T04:21:43.130880Z",
      "apogee_km": 550.7305345279128,
      "perigee_km": 548.2580629173981,
      "latitude_deg": 7.505941714427409e-07,
      "longitude_deg": 61.343722514098104,
      "height_km": 552.3775628411621,
      "semi_major_axis_km": 6927.631298722656,
      "eccentricity": 0.00017845,
      "inclination_deg": 97.6024,
      "raan_deg": 314.3506,
      "arg_perigee_deg": 81.6727,
      "mean_anomaly_deg": 278.4702,
      "mean_motion_rev_day": 15.05655495
    },
    {
      "epoch": "2026-03-30T13:55:55.149024Z",
      "apogee_km": 550.8082026932198,
      "perigee_km": 548.1880325390348,
      "latitude_deg": -6.215585679391251e-06,
      "longitude_deg": -82.20597784180954,
      "height_km": 552.3699476356583,
      "semi_major_axis_km": 6927.635117616127,
      "eccentricity": 0.00018911,
      "inclination_deg": 97.6022,
      "raan_deg": 314.744,
      "arg_perigee_deg": 81.648,
      "mean_anomaly_deg": 278.4961,
      "mean_motion_rev_day": 15.0565425
    },
    {
      "epoch": "2026-03-30T18:43:01.071264Z",
      "apogee_km": 550.920950111793,
      "perigee_km": 548.0315811709588,
      "latitude_deg": 6.607109922815874e-05,
      "longitude_deg": -153.98107528778328,
      "height_km": 552.4632208667543,
      "semi_major_axis_km": 6927.613265641376,
      "eccentricity": 0.00020854,
      "inclination_deg": 97.6032,
      "raan_deg": 314.9401,
      "arg_perigee_deg": 87.0324,
      "mean_anomaly_deg": 273.1142,
      "mean_motion_rev_day": 15.05661374
    },
    {
      "epoch": "2026-03-31T13:51:25.086816Z",
      "apogee_km": 550.8902416663232,
      "perigee_km": 548.0859390297492,
      "latitude_deg": -5.126624097267058e-05,
      "longitude_deg": -81.08147549241006,
      "height_km": 552.505651204166,
      "semi_major_axis_km": 6927.625090348036,
      "eccentricity": 0.0002024,
      "inclination_deg": 97.6028,
      "raan_deg": 315.7258,
      "arg_perigee_deg": 88.1885,
      "mean_anomaly_deg": 271.9573,
      "mean_motion_rev_day": 15.05657519
    },
    {
      "epoch": "2026-04-01T04:12:43.146432Z",
      "apogee_km": 550.7069982945932,
      "perigee_km": 548.301721214486,
      "latitude_deg": -3.821372985600083e-05,
      "longitude_deg": 63.595035602198635,
      "height_km": 552.3519949651184,
      "semi_major_axis_km": 6927.641359754539,
      "eccentricity": 0.0001736,
      "inclination_deg": 97.6018,
      "raan_deg": 316.3171,
      "arg_perigee_deg": 79.7123,
      "mean_anomaly_deg": 280.4299,
      "mean_motion_rev_day": 15.05652215
    },
    {
      "epoch": "2026-04-02T18:29:31.029792Z",
      "apogee_km": 550.8330345824188,
      "perigee_km": 548.1312631143692,
      "latitude_deg": 2.5565045765667264e-05,
      "longitude_deg": -150.60618771613986,
      "height_km": 552.3943558171474,
      "semi_major_axis_km": 6927.619148848394,
      "eccentricity": 0.000195,
      "inclination_deg": 97.6029,
      "raan_deg": 317.8875,
      "arg_perigee_deg": 83.6337,
      "mean_anomaly_deg": 276.5112,
      "mean_motion_rev_day": 15.05659456
    },
    {
      "epoch": "2026-04-02T21:40:54.895296Z",
      "apogee_km": 550.8307466438118,
      "perigee_km": 548.0838169591925,
      "latitude_deg": -2.291389937312225e-05,
      "longitude_deg": 161.54517210117567,
      "height_km": 552.3113052995714,
      "semi_major_axis_km": 6927.594281801502,
      "eccentricity": 0.00019826,
      "inclination_deg": 97.6016,
      "raan_deg": 318.0193,
      "arg_perigee_deg": 81.2903,
      "mean_anomaly_deg": 278.8548,
      "mean_motion_rev_day": 15.05667563
    },
    {
      "epoch": "2026-04-03T15:13:36.843744Z",
      "apogee_km": 550.8262190066644,
      "perigee_km": 548.1064419391196,
      "latitude_deg": -7.440637887744344e-06,
      "longitude_deg": -101.6301620909815,
      "height_km": 552.3695811817089,
      "semi_major_axis_km": 6927.603330472892,
      "eccentricity": 0.0001963,
      "inclination_deg": 97.6027,
      "raan_deg": 318.7393,
      "arg_perigee_deg": 83.2964,
      "mean_anomaly_deg": 276.8486,
      "mean_motion_rev_day": 15.05664613
    },
    {
      "epoch": "2026-04-04T21:31:55.510464Z",
      "apogee_km": 550.9527712086392,
      "perigee_km": 548.0999594347995,
      "latitude_deg": -8.49384789628903e-05,
      "longitude_deg": 163.79177958397415,
      "height_km": 552.4734353202473,
      "semi_major_axis_km": 6927.663365321719,
      "eccentricity": 0.0002059,
      "inclination_deg": 97.6022,
      "raan_deg": 319.9836,
      "arg_perigee_deg": 85.3856,
      "mean_anomaly_deg": 274.7605,
      "mean_motion_rev_day": 15.05645041
    },
    {
      "epoch": "2026-04-05T13:28:55.748640Z",
      "apogee_km": 551.0015160513894,
      "perigee_km": 548.0467300291903,
      "latitude_deg": 1.714709834252081e-05,
      "longitude_deg": -75.45927341158931,
      "height_km": 552.5209227752731,
      "semi_major_axis_km": 6927.66112304029,
      "eccentricity": 0.00021326,
      "inclination_deg": 97.6023,
      "raan_deg": 320.6386,
      "arg_perigee_deg": 87.4831,
      "mean_anomaly_deg": 272.664,
      "mean_motion_rev_day": 15.05645772
    },
    {
      "epoch": "2026-04-05T21:27:25.797312Z",
      "apogee_km": 551.0163332014954,
      "perigee_km": 548.0138887765925,
      "latitude_deg": -6.086115085968985e-05,
      "longitude_deg": 164.9153113807742,
      "height_km": 552.4924627176399,
      "semi_major_axis_km": 6927.652110989044,
      "eccentricity": 0.0002167,
      "inclination_deg": 97.6024,
      "raan_deg": 320.9659,
      "arg_perigee_deg": 86.7818,
      "mean_anomaly_deg": 273.3656,
      "mean_motion_rev_day": 15.0564871
    },
    {
      "epoch": "2026-04-06T03:50:13.756416Z",
      "apogee_km": 551.0026085959817,
      "perigee_km": 548.0016938684512,
      "latitude_deg": -3.537518565345566e-05,
      "longitude_deg": 69.21546098826086,
      "height_km": 552.4667503916933,
      "semi_major_axis_km": 6927.639151232216,
      "eccentricity": 0.00021659,
      "inclination_deg": 97.6025,
      "raan_deg": 321.2279,
      "arg_perigee_deg": 86.2923,
      "mean_anomaly_deg": 273.8551,
      "mean_motion_rev_day": 15.05652935
    },
    {
      "epoch": "2026-04-07T08:32:47.828832Z",
      "apogee_km": 550.688210462411,
      "perigee_km": 548.0991151524931,
      "latitude_deg": 2.1878485467419685e-05,
      "longitude_deg": -1.4264739541168747,
      "height_km": 552.2778703130471,
      "semi_major_axis_km": 6927.530662807451,
      "eccentricity": 0.00018687,
      "inclination_deg": 97.6028,
      "raan_deg": 322.407,
      "arg_perigee_deg": 82.0977,
      "mean_anomaly_deg": 278.0462,
      "mean_motion_rev_day": 15.05688304
    },
    {
      "epoch": "2026-04-07T21:18:24.490944Z",
      "apogee_km": 551.1220156166137,
      "perigee_km": 547.8923478990791,
      "latitude_deg": 6.90703555757836e-05,
      "longitude_deg": 167.17031729040485,
      "height_km": 552.4712397228582,
      "semi_major_axis_km": 6927.644181757846,
      "eccentricity": 0.0002331,
      "inclination_deg": 97.6023,
      "raan_deg": 322.9306,
      "arg_perigee_deg": 86.547,
      "mean_anomaly_deg": 273.6024,
      "mean_motion_rev_day": 15.05651295
    },
    {
      "epoch": "2026-04-08T14:51:06.810048Z",
      "apogee_km": 551.1587343420588,
      "perigee_km": 547.8953889091881,
      "latitude_deg": 8.089809632786621e-05,
      "longitude_deg": -96.00536730617385,
      "height_km": 552.5009010778476,
      "semi_major_axis_km": 6927.664061625623,
      "eccentricity": 0.00023553,
      "inclination_deg": 97.6022,
      "raan_deg": 323.6518,
      "arg_perigee_deg": 86.9285,
      "mean_anomaly_deg": 273.2212,
      "mean_motion_rev_day": 15.05644814
    },
    {
      "epoch": "2026-04-09T21:09:25.677216Z",
      "apogee_km": 551.1951485388909,
      "perigee_km": 547.8532447776215,
      "latitude_deg": 2.82882505142381e-05,
      "longitude_deg": 169.41493071692747,
      "height_km": 552.4214397670253,
      "semi_major_axis_km": 6927.661196658256,
      "eccentricity": 0.0002412,
      "inclination_deg": 97.6035,
      "raan_deg": 324.8953,
      "arg_perigee_deg": 84.3712,
      "mean_anomaly_deg": 275.779,
      "mean_motion_rev_day": 15.05645748
    },
    {
      "epoch": "2026-04-10T08:19:19.716672Z",
      "apogee_km": 551.1918725731703,
      "perigee_km": 547.8250368821718,
      "latitude_deg": -7.327430356668176e-05,
      "longitude_deg": 1.939747921479995,
      "height_km": 552.4022318135987,
      "semi_major_axis_km": 6927.645454727671,
      "eccentricity": 0.000243,
      "inclination_deg": 97.6034,
      "raan_deg": 325.3538,
      "arg_perigee_deg": 84.2947,
      "mean_anomaly_deg": 275.8556,
      "mean_motion_rev_day": 15.0565088
    }
  ]
}